{"type": "FeatureCollection", "features": [ {"type": "Feature", "properties": {"norad_id": 45358, "name": "COSMOS 2545 (760)", "group": "glo-ops", "lat": 40.53008127302979, "lon": -17.140219865058608, "alt_km": 19152.4179386061, "timestamp": "2025-12-18T14:52:08.287057+00:00", "meta": {"OBJECT_NAME": "COSMOS 2545 (760)", "OBJECT_ID": "2020-018A", "EPOCH": "2025-12-18T02:09:48.426048", "MEAN_MOTION": 2.13102578, "ECCENTRICITY": 0.00116405, "INCLINATION": 64.466, "RA_OF_ASC_NODE": 318.7814, "ARG_OF_PERICENTER": 249.3553, "MEAN_ANOMALY": 110.5113, "EPHEMERIS_TYPE": 0, "CLASSIFICATION_TYPE": "U", "NORAD_CAT_ID": 45358, "ELEMENT_SET_NO": 999, "REV_AT_EPOCH": 4480, "BSTAR": 0, "MEAN_MOTION_DOT": -6.6e-07, "MEAN_MOTION_DDOT": 0}, "tle": {"line1": "1 45358U 20018A   25352.09014382 -.00000066  00000+0  00000+0 0  9991", "line2": "2 45358  64.4660 318.7814 0011640 249.3553 110.5113  2.13102578 44805"}}, "geometry": {"type": "Point", "coordinates": [-17.140219865058608, 40.53008127302979]}}, {"type": "Feature", "properties": {"norad_id": 46805, "name": "COSMOS 2547 (705K)", "group": "glo-ops", "lat": -63.37042724870011, "lon": 89.96456034338847, "alt_km": 19123.431423464124, "timestamp": "2025-12-18T14:52:08.287067+00:00", "meta": {"OBJECT_NAME": "COSMOS 2547 (705K)", "OBJECT_ID": "2020-075A", "EPOCH": "2025-12-17T08:09:16.456320", "MEAN_MOTION": 2.1310013, "ECCENTRICITY": 0.0006169, "INCLINATION": 64.5962, "RA_OF_ASC_NODE": 198.5429, "ARG_OF_PERICENTER": 228.3795, "MEAN_ANOMALY": 131.6499, "EPHEMERIS_TYPE": 0, "CLASSIFICATION_TYPE": "U", "NORAD_CAT_ID": 46805, "ELEMENT_SET_NO": 999, "REV_AT_EPOCH": 4003, "BSTAR": 0, "MEAN_MOTION_DOT": 1.12e-06, "MEAN_MOTION_DDOT": 0}, "tle": {"line1": "1 46805U 20075A   25351.33977380  .00000112  00000+0  00000+0 0  9995", "line2": "2 46805  64.5962 198.5429 0006169 228.3795 131.6499  2.13100130 40034"}}, "geometry": {"type": "Point", "coordinates": [89.96456034338847, -63.37042724870011]}}, {"type": "Feature", "properties": {"norad_id": 52984, "name": "COSMOS 2557 (706K)", "group": "glo-ops", "lat": 39.75275860439173, "lon": 117.34152806212823, "alt_km": 19152.988031070137, "timestamp": "2025-12-18T14:52:08.287098+00:00", "meta": {"OBJECT_NAME": "COSMOS 2557 (706K)", "OBJECT_ID": "2022-075A", "EPOCH": "2025-12-17T23:22:55.877376", "MEAN_MOTION": 2.13101861, "ECCENTRICITY": 0.00136329, "INCLINATION": 64.4068, "RA_OF_ASC_NODE": 320.867, "ARG_OF_PERICENTER": 277.443, "MEAN_ANOMALY": 82.3946, "EPHEMERIS_TYPE": 0, "CLASSIFICATION_TYPE": "U", "NORAD_CAT_ID": 52984, "ELEMENT_SET_NO": 999, "REV_AT_EPOCH": 2685, "BSTAR": 0, "MEAN_MOTION_DOT": -6.7e-07, "MEAN_MOTION_DDOT": 0}, "tle": {"line1": "1 52984U 22075A   25351.97425784 -.00000067  00000+0  00000+0 0  9998", "line2": "2 52984  64.4068 320.8670 0013632 277.4430  82.3946  2.13101861 26852"}}, "geometry": {"type": "Point", "coordinates": [117.34152806212823, 39.75275860439173]}}, {"type": "Feature", "properties": {"norad_id": 54031, "name": "COSMOS 2559 (707K)", "group": "glo-ops", "lat": -64.09878945036087, "lon": -120.16946484955017, "alt_km": 19132.252547136763, "timestamp": "2025-12-18T14:52:08.287112+00:00", "meta": {"OBJECT_NAME": "COSMOS 2559 (707K)", "OBJECT_ID": "2022-130A", "EPOCH": "2025-12-17T07:46:49.658304", "MEAN_MOTION": 2.13101395, "ECCENTRICITY": 0.00116575, "INCLINATION": 64.3796, "RA_OF_ASC_NODE": 320.9797, "ARG_OF_PERICENTER": 192.1273, "MEAN_ANOMALY": 167.8384, "EPHEMERIS_TYPE": 0, "CLASSIFICATION_TYPE": "U", "NORAD_CAT_ID": 54031, "ELEMENT_SET_NO": 999, "REV_AT_EPOCH": 2481, "BSTAR": 0, "MEAN_MOTION_DOT": -6.8e-07, "MEAN_MOTION_DDOT": 0}, "tle": {"line1": "1 54031U 22130A   25351.32418586 -.00000068  00000+0  00000+0 0  9997", "line2": "2 54031  64.3796 320.9797 0011657 192.1273 167.8384  2.13101395 24819"}}, "geometry": {"type": "Point", "coordinates": [-120.16946484955017, -64.09878945036087]}}, {"type": "Feature", "properties": {"norad_id": 54377, "name": "COSMOS 2564 (761)", "group": "glo-ops", "lat": 29.698620212727278, "lon": -145.66358261503274, "alt_km": 19148.117948755043, "timestamp": "2025-12-18T14:52:08.287124+00:00", "meta": {"OBJECT_NAME": "COSMOS 2564 (761)", "OBJECT_ID": "2022-161A", "EPOCH": "2025-12-18T02:33:56.803680", "MEAN_MOTION": 2.131021, "ECCENTRICITY": 0.00085677, "INCLINATION": 64.7385, "RA_OF_ASC_NODE": 198.7206, "ARG_OF_PERICENTER": 204.1493, "MEAN_ANOMALY": 155.8928, "EPHEMERIS_TYPE": 0, "CLASSIFICATION_TYPE": "U", "NORAD_CAT_ID": 54377, "ELEMENT_SET_NO": 999, "REV_AT_EPOCH": 2377, "BSTAR": 0, "MEAN_MOTION_DOT": 1.11e-06, "MEAN_MOTION_DDOT": 0}, "tle": {"line1": "1 54377U 22161A   25352.10690745  .00000111  00000+0  00000+0 0  9998", "line2": "2 54377  64.7385 198.7206 0008567 204.1493 155.8928  2.13102100 23770"}}, "geometry": {"type": "Point", "coordinates": [-145.66358261503274, 29.698620212727278]}}, {"type": "Feature", "properties": {"norad_id": 57517, "name": "COSMOS 2569 (703K)", "group": "glo-ops", "lat": 20.83011694810326, "lon": 88.83983467488939, "alt_km": 19130.402941366046, "timestamp": "2025-12-18T14:52:08.287135+00:00", "meta": {"OBJECT_NAME": "COSMOS 2569 (703K)", "OBJECT_ID": "2023-114A", "EPOCH": "2025-12-18T02:53:08.324736", "MEAN_MOTION": 2.13104044, "ECCENTRICITY": 0.00107319, "INCLINATION": 65.197, "RA_OF_ASC_NODE": 78.7317, "ARG_OF_PERICENTER": 286.9932, "MEAN_ANOMALY": 72.9111, "EPHEMERIS_TYPE": 0, "CLASSIFICATION_TYPE": "U", "NORAD_CAT_ID": 57517, "ELEMENT_SET_NO": 999, "REV_AT_EPOCH": 1840, "BSTAR": 0, "MEAN_MOTION_DOT": -4.2e-07, "MEAN_MOTION_DDOT": 0}, "tle": {"line1": "1 57517U 23114A   25352.12023524 -.00000042  00000+0  00000+0 0  9997", "line2": "2 57517  65.1970  78.7317 0010731 286.9932  72.9111  2.13104044 18402"}}, "geometry": {"type": "Point", "coordinates": [88.83983467488939, 20.83011694810326]}}, {"type": "Feature", "properties": {"norad_id": 63130, "name": "COSMOS 2584 (704K)", "group": "glo-ops", "lat": 58.43212990124901, "lon": -150.40271268122228, "alt_km": 19129.40906633941, "timestamp": "2025-12-18T14:52:08.287146+00:00", "meta": {"OBJECT_NAME": "COSMOS 2584 (704K)", "OBJECT_ID": "2025-042A", "EPOCH": "2025-12-14T17:19:43.603680", "MEAN_MOTION": 2.13103043, "ECCENTRICITY": 0.00076907, "INCLINATION": 64.977, "RA_OF_ASC_NODE": 79.0784, "ARG_OF_PERICENTER": 217.9412, "MEAN_ANOMALY": 142.0178, "EPHEMERIS_TYPE": 0, "CLASSIFICATION_TYPE": "U", "NORAD_CAT_ID": 63130, "ELEMENT_SET_NO": 999, "REV_AT_EPOCH": 611, "BSTAR": 0, "MEAN_MOTION_DOT": -5.6e-07, "MEAN_MOTION_DDOT": 0}, "tle": {"line1": "1 63130U 25042A   25348.72203245 -.00000056  00000+0  00000+0 0  9993", "line2": "2 63130  64.9770  79.0784 0007690 217.9412 142.0178  2.13103043  6119"}}, "geometry": {"type": "Point", "coordinates": [-150.40271268122228, 58.43212990124901]}}, {"type": "Feature", "properties": {"norad_id": 65590, "name": "COSMOS 2596 (708K)", "group": "glo-ops", "lat": -42.496246639815205, "lon": 166.87698062183426, "alt_km": 19127.955778296528, "timestamp": "2025-12-18T14:52:08.287157+00:00", "meta": {"OBJECT_NAME": "COSMOS 2596 (708K)", "OBJECT_ID": "2025-206B", "EPOCH": "2025-12-16T13:58:37.157664", "MEAN_MOTION": 2.13100551, "ECCENTRICITY": 0.00140491, "INCLINATION": 64.7424, "RA_OF_ASC_NODE": 321.3409, "ARG_OF_PERICENTER": 306.7915, "MEAN_ANOMALY": 158.8114, "EPHEMERIS_TYPE": 0, "CLASSIFICATION_TYPE": "U", "NORAD_CAT_ID": 65590, "ELEMENT_SET_NO": 999, "REV_AT_EPOCH": 202, "BSTAR": 0, "MEAN_MOTION_DOT": -6.9e-07, "MEAN_MOTION_DDOT": 0}, "tle": {"line1": "1 65590U 25206B   25350.58237451 -.00000069  00000+0  00000+0 0  9994", "line2": "2 65590  64.7424 321.3409 0014049 306.7915 158.8114  2.13100551  2025"}}, "geometry": {"type": "Point", "coordinates": [166.87698062183426, -42.496246639815205]}}]}